{"fetched_at":"2026-03-30T06:02:59Z","count":15439,"tles":[{"name":"STARLINK-2346","line1":"1 47887U 21021AD  26087.71156539  .00000084  00000+0  14957-4 0  9991","line2":"2 47887  53.1615 192.6483 0001058  81.0507 279.0614 15.30183735278973","category":"Starlink"}]}