{
  "norad_id": 47887,
  "name": "STARLINK-2346",
  "history": [
    {
      "epoch": "2026-03-28T17:04:39.249696",
      "apogee_km": 475.9887239948139,
      "perigee_km": 474.538544420614,
      "latitude_deg": -13.80936408080329,
      "longitude_deg": 117.01027744007297,
      "semi_major_axis_km": 6853.400634207714,
      "eccentricity": 0.0001058,
      "inclination_deg": 53.1615,
      "raan_deg": 192.6483,
      "arg_perigee_deg": 81.0507,
      "mean_anomaly_deg": 279.0614,
      "mean_motion_rev_day": 15.30183735
    }
  ]
}